{"type":"FeatureCollection","features":[{"type":"Feature","properties":{"unit_id":"BD302614","level":"upazila","name_en":"Dhamrai","name_bn":"ধামরাই","division":"Dhaka","kiln_count":null,"kiln_share":null},"geometry":{"type":"Polygon","coordinates":[[[90.1,23.85],[90.25,23.85],[90.25,24.0],[90.1,24.0],[90.1,23.85]]]}},{"type":"Feature","properties":{"unit_id":"BD508131","level":"upazila","name_en":"Godagari","name_bn":"গোদাগাড়ী","division":"Rajshahi","kiln_count":null,"kiln_share":null},"geometry":{"type":"Polygon","coordinates":[[[88.3,24.4],[88.45,24.4],[88.45,24.55],[88.3,24.55],[88.3,24.4]]]}}]}