{"type":"FeatureCollection","source":"Natural Earth 1:50m Admin 0 countries v5 (public domain), simplified 0.02 deg; de facto boundaries, not an endorsement of any claim","features":[{"type":"Feature","properties":{"unit_id":"AFG","level":"country","name_en":"Afghanistan","name_bn":"আফগানিস্তান","division":"South Asia","kiln_count":null,"kiln_share":null},"geometry":{"type":"Polygon","coordinates":[[[66.522,37.348],[66.828,37.371],[67.069,37.335],[67.196,37.235],[67.32,37.21],[67.517,37.267],[67.546,37.236],[67.7,37.227],[67.753,37.2],[67.834,37.064],[67.958,36.972],[68.068,36.95],[68.212,37.022],[68.261,37.013],[68.3,37.088],[68.387,37.138],[68.546,37.183],[68.669,37.258],[68.824,37.271],[68.912,37.334],[69.265,37.108],[69.304,37.117],[69.414,37.208],[69.43,37.291],[69.399,37.399],[69.42,37.487],[69.492,37.553],[69.821,37.61],[69.941,37.6],[70.045,37.547],[70.12,37.544],[70.189,37.582],[70.251,37.664],[70.255,37.765],[70.199,37.886],[70.215,37.924],[70.418,38.075],[70.616,38.334],[70.736,38.423],[70.879,38.456],[71.052,38.418],[71.256,38.307],[71.333,38.17],[71.279,37.918],[71.552,37.933],[71.582,37.91],[71.433,37.128],[71.531,36.845],[71.597,36.733],[71.666,36.697],[71.802,36.694],[72.154,36.901],[72.359,36.983],[72.657,37.029],[72.757,37.173],[72.896,37.268],[73.383,37.462],[73.481,37.472],[73.721,37.419],[73.717,37.329],[73.628,37.262],[73.654,37.239],[73.75,37.232],[74.167,37.329],[74.26,37.415],[74.349,37.419],[74.524,37.382],[74.659,37.394],[74.891,37.232],[74.767,37.249],[74.727,37.291],[74.372,37.158],[74.541,37.022],[74.039,36.826],[73.769,36.888],[73.117,36.869],[72.623,36.83],[72.25,36.735],[72.157,36.701],[71.773,36.432],[71.621,36.436],[71.233,36.122],[71.185,36.042],[71.398,35.88],[71.519,35.598],[71.572,35.547],[71.601,35.408],[71.546,35.289],[71.621,35.183],[71.455,34.967],[71.294,34.868],[71.066,34.6],[70.966,34.53],[71.096,34.369],[71.091,34.12],[71.052,34.05],[70.654,33.952],[70.326,33.961],[69.995,34.052],[69.89,34.007],[69.868,33.898],[70.134,33.621],[70.284,33.369],[70.261,33.289],[69.92,33.112],[69.704,33.095],[69.502,33.02],[69.453,32.833],[69.405,32.764],[69.405,32.683],[69.241,32.434],[69.279,31.937],[69.083,31.738],[68.869,31.634],[68.782,31.646],[68.598,31.803],[68.443,31.754],[68.161,31.803],[68.017,31.678],[67.578,31.506],[67.598,31.453],[67.733,31.379],[67.738,31.344],[67.453,31.235],[67.287,31.218],[66.924,31.306],[66.829,31.264],[66.731,31.195],[66.596,31.02],[66.397,30.912],[66.347,30.803],[66.287,30.608],[66.305,30.321],[66.238,30.11],[66.247,30.044],[66.313,29.969],[66.177,29.836],[65.096,29.559],[64.394,29.544],[64.172,29.46],[64.099,29.392],[63.568,29.498],[62.477,29.408],[60.843,29.859],[61.784,30.832],[61.811,30.913],[61.814,31.073],[61.755,31.285],[61.66,31.382],[60.821,31.495],[60.788,31.877],[60.829,32.249],[60.562,33.059],[60.561,33.138],[60.917,33.505],[60.907,33.539],[60.655,33.56],[60.511,33.639],[60.486,33.712],[60.527,33.842],[60.486,34.095],[60.643,34.307],[60.889,34.319],[60.726,34.518],[60.951,34.654],[60.958,34.71],[61.08,34.856],[61.07,34.922],[61.15,35.094],[61.1,35.272],[61.189,35.312],[61.279,35.514],[61.262,35.62],[61.345,35.629],[61.543,35.458],[61.621,35.432],[61.984,35.444],[62.213,35.29],[62.308,35.171],[62.463,35.251],[62.611,35.233],[62.688,35.255],[63.057,35.446],[63.084,35.568],[63.17,35.678],[63.109,35.819],[63.13,35.846],[63.302,35.858],[63.862,36.012],[64.01,36.012],[64.092,36.113],[64.358,36.226],[64.511,36.341],[64.816,37.132],[65.09,37.238],[65.555,37.251],[65.641,37.468],[65.765,37.569],[66.108,37.415],[66.522,37.348]]]}},{"type":"Feature","properties":{"unit_id":"BGD","level":"country","name_en":"Bangladesh","name_bn":"বাংলাদেশ","division":"South Asia","kiln_count":null,"kiln_share":null},"geometry":{"type":"MultiPolygon","coordinates":[[[[89.094,21.873],[89.05,22.275],[88.921,22.632],[88.851,23.041],[88.928,23.187],[88.724,23.255],[88.704,23.293],[88.741,23.437],[88.616,23.573],[88.567,23.674],[88.7,24.003],[88.724,24.275],[88.642,24.326],[88.397,24.389],[88.287,24.48],[88.225,24.461],[88.146,24.486],[88.023,24.628],[88.15,24.915],[88.313,24.882],[88.373,24.962],[88.456,25.188],[88.817,25.176],[88.89,25.194],[88.952,25.259],[88.82,25.366],[88.769,25.49],[88.593,25.495],[88.502,25.537],[88.363,25.698],[88.253,25.79],[88.147,25.811],[88.085,25.888],[88.151,26.087],[88.44,26.369],[88.437,26.437],[88.346,26.505],[88.37,26.564],[88.418,26.572],[88.62,26.431],[88.681,26.353],[88.683,26.292],[88.828,26.252],[88.97,26.251],[88.982,26.286],[88.924,26.375],[88.952,26.412],[89.019,26.41],[89.067,26.377],[89.108,26.202],[89.186,26.106],[89.37,26.006],[89.467,25.984],[89.55,26.005],[89.591,26.072],[89.586,26.186],[89.671,26.214],[89.823,25.941],[89.796,25.376],[89.833,25.293],[90.439,25.158],[91.293,25.178],[91.48,25.142],[92.05,25.169],[92.373,25.015],[92.485,24.903],[92.443,24.849],[92.228,24.881],[92.227,24.771],[92.102,24.408],[91.952,24.357],[91.877,24.195],[91.846,24.175],[91.727,24.205],[91.526,24.091],[91.367,24.094],[91.336,24.019],[91.232,23.92],[91.16,23.661],[91.315,23.104],[91.369,23.075],[91.371,23.198],[91.436,23.2],[91.511,23.034],[91.62,22.98],[91.751,23.054],[91.774,23.106],[91.754,23.287],[91.79,23.361],[91.938,23.505],[91.93,23.686],[92.044,23.678],[92.152,23.722],[92.187,23.676],[92.246,23.684],[92.334,23.324],[92.362,22.929],[92.491,22.685],[92.583,21.94],[92.593,21.467],[92.632,21.306],[92.569,21.263],[92.539,21.32],[92.331,21.44],[92.208,21.358],[92.18,21.293],[92.192,21.202],[92.215,21.113],[92.264,21.061],[92.324,20.792],[92.056,21.175],[92.008,21.685],[91.913,21.883],[91.825,22.229],[91.863,22.35],[91.797,22.297],[91.693,22.505],[91.53,22.708],[91.482,22.797],[91.48,22.885],[91.216,22.642],[90.946,22.597],[90.827,22.721],[90.656,23.025],[90.634,23.094],[90.656,23.273],[90.604,23.591],[90.562,23.537],[90.556,23.422],[90.269,23.456],[90.392,23.367],[90.523,23.346],[90.591,23.266],[90.595,23.134],[90.466,23.054],[90.478,22.987],[90.552,22.905],[90.462,22.882],[90.435,22.752],[90.498,22.635],[90.487,22.589],[90.616,22.362],[90.589,22.258],[90.356,22.048],[90.231,21.83],[90.159,21.817],[90.071,21.887],[90.088,22.017],[90.21,22.157],[89.954,22.023],[89.918,22.116],[89.894,22.308],[89.985,22.466],[89.882,22.388],[89.853,22.091],[89.812,21.983],[89.569,21.767],[89.483,22.276],[89.501,21.914],[89.354,21.721],[89.234,21.722],[89.094,21.873]]],[[[91.151,22.175],[91.045,22.105],[91.079,22.52],[91.178,22.283],[91.151,22.175]]],[[[91.557,22.382],[91.51,22.353],[91.467,22.378],[91.411,22.476],[91.456,22.617],[91.557,22.382]]],[[[90.778,22.089],[90.515,22.065],[90.68,22.327],[90.649,22.541],[90.565,22.618],[90.503,22.835],[90.596,22.864],[90.672,22.813],[90.737,22.639],[90.868,22.485],[90.83,22.16],[90.778,22.089]]],[[[91.883,21.884],[91.838,21.75],[91.82,21.81],[91.851,21.927],[91.883,21.884]]],[[[91.949,21.508],[91.889,21.503],[91.859,21.533],[91.857,21.709],[91.934,21.722],[91.949,21.508]]],[[[90.58,23.035],[90.66,22.92],[90.536,23.015],[90.58,23.035]]]]}},{"type":"Feature","properties":{"unit_id":"BTN","level":"country","name_en":"Bhutan","name_bn":"ভুটান","division":"South Asia","kiln_count":null,"kiln_share":null},"geometry":{"type":"Polygon","coordinates":[[[91.632,27.76],[91.579,27.611],[91.595,27.558],[91.743,27.443],[91.991,27.45],[92.083,27.291],[91.992,27.1],[92.068,26.975],[92.05,26.875],[91.672,26.802],[91.518,26.807],[91.427,26.867],[91.287,26.79],[90.74,26.772],[90.56,26.797],[90.346,26.89],[90.206,26.848],[90.123,26.755],[89.764,26.702],[89.61,26.719],[89.586,26.779],[89.332,26.849],[89.148,26.816],[89.041,26.865],[88.858,26.961],[88.835,27.066],[88.739,27.176],[88.882,27.297],[88.948,27.464],[89.102,27.593],[89.16,27.711],[89.481,28.06],[89.75,28.188],[89.817,28.256],[89.981,28.311],[90.348,28.244],[90.353,28.08],[90.716,28.072],[91.021,27.97],[91.273,28.078],[91.642,27.923],[91.632,27.76]]]}},{"type":"Feature","properties":{"unit_id":"IND","level":"country","name_en":"India","name_bn":"ভারত","division":"South Asia","kiln_count":null,"kiln_share":null},"geometry":{"type":"MultiPolygon","coordinates":[[[[68.165,23.857],[68.381,23.951],[68.724,23.965],[68.728,24.266],[68.781,24.314],[68.828,24.264],[68.901,24.292],[69.559,24.273],[69.716,24.173],[69.805,24.165],[70.021,24.192],[70.098,24.288],[70.489,24.412],[70.547,24.418],[70.579,24.279],[70.716,24.238],[71.044,24.4],[70.973,24.487],[70.97,24.572],[70.976,24.619],[71.048,24.688],[70.878,25.063],[70.652,25.423],[70.648,25.667],[70.57,25.706],[70.449,25.681],[70.265,25.707],[70.1,25.91],[70.078,26.072],[70.133,26.215],[70.148,26.506],[70.059,26.579],[69.736,26.627],[69.507,26.743],[69.47,26.804],[69.537,27.123],[69.896,27.474],[70.145,27.849],[70.404,28.025],[70.489,28.023],[70.629,27.937],[70.692,27.769],[70.798,27.71],[71.185,27.832],[71.543,27.87],[71.87,27.962],[71.948,28.177],[72.129,28.346],[72.342,28.752],[72.903,29.029],[73.231,29.551],[73.382,29.934],[73.809,30.093],[73.933,30.222],[73.883,30.352],[73.899,30.435],[74.009,30.52],[74.339,30.894],[74.633,31.035],[74.61,31.113],[74.54,31.133],[74.518,31.186],[74.594,31.465],[74.51,31.713],[74.556,31.819],[74.739,31.949],[75.254,32.14],[75.325,32.215],[75.333,32.279],[75.234,32.372],[74.987,32.462],[74.789,32.458],[74.686,32.494],[74.643,32.608],[74.663,32.758],[74.355,32.769],[74.305,32.81],[74.33,32.861],[74.304,32.992],[74.126,33.075],[74.004,33.189],[73.994,33.242],[74.118,33.384],[74.15,33.507],[74.004,33.632],[73.976,33.721],[74.001,33.788],[74.216,33.887],[74.251,33.946],[74.246,33.99],[73.95,34.019],[73.904,34.076],[73.979,34.191],[73.972,34.237],[73.925,34.288],[73.81,34.325],[73.795,34.378],[73.961,34.653],[74.3,34.765],[74.952,34.646],[75.188,34.639],[75.453,34.537],[75.709,34.503],[76.041,34.67],[76.172,34.668],[76.457,34.756],[76.594,34.736],[76.696,34.787],[76.783,34.9],[77.001,34.992],[77.049,35.11],[77.799,35.496],[77.895,35.449],[78.043,35.48],[78.012,35.251],[78.327,34.606],[78.671,34.518],[78.936,34.352],[78.97,34.303],[78.971,34.228],[78.753,34.088],[78.727,34.013],[78.784,33.809],[78.802,33.5],[79.112,33.226],[79.135,33.172],[79.103,33.053],[79.202,32.946],[79.234,32.703],[79.219,32.501],[79.127,32.476],[79.067,32.388],[78.919,32.358],[78.771,32.468],[78.701,32.597],[78.412,32.558],[78.39,32.52],[78.496,32.216],[78.735,31.958],[78.693,31.74],[78.803,31.618],[78.727,31.472],[78.759,31.437],[78.744,31.324],[78.792,31.294],[78.974,31.329],[79.011,31.414],[79.107,31.403],[79.339,31.106],[79.493,30.994],[79.565,30.949],[79.795,30.968],[80.081,30.782],[80.149,30.79],[80.194,30.759],[80.191,30.568],[80.682,30.415],[80.985,30.237],[81.01,30.165],[80.908,30.172],[80.848,30.14],[80.549,29.9],[80.402,29.73],[80.255,29.423],[80.233,29.195],[80.13,29.1],[80.085,28.994],[80.052,28.87],[80.071,28.83],[80.419,28.612],[80.479,28.605],[80.518,28.665],[80.587,28.65],[81.169,28.335],[81.311,28.176],[81.853,27.867],[81.988,27.914],[82.451,27.672],[82.677,27.673],[82.733,27.519],[83.29,27.371],[83.447,27.465],[83.829,27.378],[83.897,27.435],[84.091,27.491],[84.61,27.299],[84.685,27.041],[85.02,26.879],[85.125,26.861],[85.174,26.782],[85.24,26.75],[85.293,26.741],[85.568,26.84],[85.648,26.829],[85.7,26.782],[85.737,26.64],[85.795,26.604],[86.007,26.649],[86.366,26.574],[86.701,26.435],[87.016,26.555],[87.09,26.433],[87.287,26.36],[87.414,26.423],[87.633,26.399],[87.849,26.437],[87.995,26.382],[88.055,26.43],[88.162,26.725],[88.111,26.928],[87.984,27.134],[88.024,27.409],[88.147,27.749],[88.15,27.843],[88.099,27.905],[88.141,27.949],[88.426,28.012],[88.578,28.093],[88.804,28.007],[88.849,27.869],[88.749,27.522],[88.765,27.43],[88.891,27.316],[88.739,27.176],[88.835,27.066],[88.858,26.961],[89.148,26.816],[89.332,26.849],[89.586,26.779],[89.61,26.719],[89.764,26.702],[90.123,26.755],[90.206,26.848],[90.346,26.89],[90.56,26.797],[90.74,26.772],[91.287,26.79],[91.427,26.867],[91.518,26.807],[91.672,26.802],[91.842,26.853],[91.998,26.855],[92.073,26.915],[91.992,27.1],[92.083,27.291],[91.991,27.45],[91.743,27.443],[91.595,27.558],[91.579,27.611],[91.632,27.76],[91.978,27.73],[92.101,27.808],[92.25,27.842],[92.415,27.825],[92.547,27.879],[92.688,27.989],[92.643,28.062],[92.702,28.147],[93.035,28.328],[93.119,28.402],[93.252,28.629],[93.665,28.69],[93.761,28.73],[93.974,28.861],[94.018,28.96],[94.112,28.976],[94.293,29.145],[94.623,29.312],[94.733,29.252],[94.769,29.176],[94.999,29.149],[95.389,29.037],[95.517,29.151],[95.516,29.206],[96.035,29.447],[96.235,29.246],[96.356,29.249],[96.34,29.21],[96.122,29.082],[96.137,28.923],[96.162,28.91],[96.347,29.027],[96.436,29.051],[96.581,28.764],[96.396,28.607],[96.281,28.412],[96.389,28.368],[96.603,28.46],[96.776,28.367],[96.981,28.338],[97.075,28.369],[97.322,28.218],[97.303,28.086],[97.339,28.031],[97.335,27.938],[96.963,27.698],[96.877,27.587],[96.902,27.44],[97.104,27.163],[97.102,27.115],[97.038,27.102],[96.953,27.133],[96.732,27.331],[96.191,27.261],[96.061,27.217],[95.905,27.047],[95.464,26.756],[95.129,26.597],[95.06,26.474],[95.051,26.347],[95.069,26.191],[95.132,26.041],[95.015,25.913],[94.992,25.77],[94.946,25.7],[94.786,25.519],[94.668,25.459],[94.58,25.32],[94.553,25.216],[94.675,25.139],[94.708,25.049],[94.584,24.767],[94.293,24.322],[94.128,23.876],[93.683,24.007],[93.494,23.973],[93.356,24.074],[93.326,24.064],[93.307,24.022],[93.415,23.682],[93.366,23.133],[93.308,23.03],[93.164,23.032],[93.162,22.908],[93.079,22.718],[93.162,22.36],[93.151,22.231],[93.043,22.184],[92.965,22.004],[92.909,21.989],[92.721,22.132],[92.689,22.131],[92.63,22.011],[92.575,21.978],[92.491,22.685],[92.362,22.929],[92.334,23.324],[92.246,23.684],[92.187,23.676],[92.152,23.722],[92.044,23.678],[91.93,23.686],[91.938,23.505],[91.79,23.361],[91.754,23.287],[91.774,23.106],[91.751,23.054],[91.62,22.98],[91.511,23.034],[91.436,23.2],[91.371,23.198],[91.369,23.075],[91.315,23.104],[91.254,23.374],[91.166,23.581],[91.16,23.661],[91.232,23.92],[91.336,24.019],[91.367,24.094],[91.526,24.091],[91.727,24.205],[91.846,24.175],[91.877,24.195],[91.952,24.357],[92.102,24.408],[92.227,24.771],[92.228,24.881],[92.443,24.849],[92.485,24.903],[92.468,24.944],[92.205,25.111],[92.05,25.169],[91.48,25.142],[91.293,25.178],[90.439,25.158],[89.833,25.293],[89.796,25.376],[89.823,25.941],[89.671,26.214],[89.586,26.186],[89.591,26.072],[89.55,26.005],[89.467,25.984],[89.37,26.006],[89.186,26.106],[89.108,26.202],[89.067,26.377],[89.019,26.41],[88.952,26.412],[88.924,26.375],[88.982,26.286],[88.97,26.251],[88.828,26.252],[88.683,26.292],[88.681,26.353],[88.62,26.431],[88.418,26.572],[88.37,26.564],[88.351,26.483],[88.437,26.437],[88.44,26.369],[88.151,26.087],[88.085,25.888],[88.147,25.811],[88.253,25.79],[88.363,25.698],[88.502,25.537],[88.593,25.495],[88.769,25.49],[88.82,25.366],[88.952,25.259],[88.89,25.194],[88.817,25.176],[88.456,25.188],[88.373,24.962],[88.313,24.882],[88.15,24.915],[88.023,24.628],[88.146,24.486],[88.225,24.461],[88.287,24.48],[88.397,24.389],[88.642,24.326],[88.724,24.275],[88.7,24.003],[88.567,23.674],[88.616,23.573],[88.741,23.437],[88.704,23.293],[88.724,23.255],[88.928,23.187],[88.851,23.041],[88.921,22.632],[89.05,22.275],[89.028,21.937],[88.949,21.938],[89.02,21.834],[89.052,21.654],[88.907,21.653],[88.858,21.745],[88.834,21.661],[88.745,21.584],[88.695,21.662],[88.691,21.733],[88.74,22.005],[88.708,22.056],[88.66,22.067],[88.642,22.122],[88.567,21.832],[88.6,21.714],[88.585,21.66],[88.446,21.614],[88.287,21.758],[88.254,21.622],[88.122,21.636],[88.057,21.694],[88.196,22.14],[87.994,22.266],[87.941,22.374],[87.962,22.255],[88.159,22.122],[87.948,21.825],[87.678,21.654],[87.101,21.501],[86.86,21.237],[86.842,21.106],[86.939,20.745],[86.975,20.7],[86.763,20.419],[86.75,20.313],[86.499,20.172],[86.377,20.007],[86.245,20.053],[86.312,19.988],[86.279,19.919],[86.216,19.896],[85.575,19.693],[85.497,19.697],[85.56,19.753],[85.555,19.867],[85.504,19.888],[85.46,19.896],[85.249,19.758],[85.163,19.621],[85.181,19.595],[85.371,19.679],[85.437,19.657],[85.442,19.627],[85.226,19.508],[84.771,19.125],[84.691,18.965],[84.104,18.293],[83.654,18.07],[83.198,17.609],[82.977,17.462],[82.593,17.274],[82.36,17.096],[82.282,16.936],[82.36,16.783],[82.259,16.56],[81.762,16.329],[81.402,16.365],[81.286,16.337],[81.132,15.962],[81.03,15.881],[80.979,15.758],[80.826,15.766],[80.782,15.867],[80.647,15.895],[80.385,15.793],[80.293,15.711],[80.101,15.324],[80.053,15.074],[80.179,14.478],[80.17,14.349],[80.112,14.212],[80.307,13.485],[80.156,13.714],[80.062,13.606],[80.114,13.529],[80.29,13.437],[80.342,13.361],[80.229,12.69],[80.143,12.452],[79.982,12.235],[79.858,11.989],[79.754,11.575],[79.793,11.447],[79.693,11.313],[79.799,11.339],[79.849,11.197],[79.838,10.323],[79.667,10.3],[79.532,10.33],[79.391,10.306],[79.315,10.257],[79.254,10.175],[79.258,10.035],[78.94,9.566],[78.919,9.453],[79.02,9.333],[79.275,9.285],[79.411,9.192],[79.213,9.256],[78.98,9.269],[78.421,9.105],[78.192,8.891],[78.126,8.511],[78.06,8.385],[77.77,8.19],[77.518,8.078],[77.301,8.145],[77.066,8.316],[76.553,8.903],[76.472,9.161],[76.403,9.237],[76.325,9.452],[76.242,9.927],[76.343,9.827],[76.376,9.54],[76.459,9.536],[76.346,9.922],[76.223,10.024],[76.196,10.086],[76.201,10.201],[75.923,10.784],[75.724,11.362],[75.525,11.703],[75.197,12.058],[74.946,12.565],[74.771,13.077],[74.671,13.668],[74.499,14.046],[74.382,14.495],[73.949,15.075],[73.884,15.306],[73.801,15.397],[73.932,15.397],[73.772,15.573],[73.833,15.659],[73.733,15.657],[73.68,15.709],[73.608,15.871],[73.476,16.054],[73.338,16.46],[73.239,17.199],[73.149,17.527],[73.156,17.622],[72.994,18.098],[72.917,18.576],[72.875,18.643],[72.899,18.779],[73.006,19.021],[72.972,19.153],[72.901,19.015],[72.835,18.976],[72.803,19.079],[72.812,19.299],[72.987,19.277],[72.788,19.363],[72.756,19.451],[72.799,19.52],[72.727,19.578],[72.668,19.831],[72.709,20.078],[72.881,20.563],[72.894,20.673],[72.814,21.117],[72.692,21.178],[72.624,21.372],[72.735,21.471],[72.613,21.462],[72.811,21.62],[73.112,21.75],[72.84,21.687],[72.543,21.697],[72.592,21.878],[72.7,21.972],[72.522,21.976],[72.553,22.16],[72.809,22.233],[72.59,22.278],[72.456,22.248],[72.183,22.27],[72.306,22.189],[72.274,22.09],[72.244,22.028],[72.094,21.92],[72.037,21.823],[72.171,21.774],[72.21,21.728],[72.257,21.661],[72.254,21.531],[72.015,21.156],[71.396,20.87],[71.025,20.739],[70.88,20.715],[70.719,20.74],[70.485,20.84],[70.034,21.179],[69.748,21.506],[69.192,21.992],[69.009,22.197],[68.97,22.29],[68.983,22.385],[69.052,22.437],[69.131,22.416],[69.277,22.285],[69.549,22.408],[69.655,22.404],[69.728,22.465],[69.819,22.452],[70.006,22.548],[70.177,22.573],[70.44,22.97],[70.513,23.002],[70.489,23.09],[70.435,23.077],[70.339,22.94],[70.251,22.971],[70.118,22.947],[69.665,22.759],[69.236,22.849],[68.817,23.054],[68.641,23.19],[68.417,23.571],[68.454,23.629],[68.777,23.852],[68.497,23.748],[68.343,23.617],[68.235,23.597],[68.165,23.857]]],[[[93.89,6.831],[93.829,6.749],[93.709,7.001],[93.658,7.016],[93.656,7.136],[93.684,7.184],[93.822,7.237],[93.859,7.207],[93.93,6.973],[93.89,6.831]]],[[[93.734,7.356],[93.638,7.262],[93.597,7.319],[93.692,7.411],[93.734,7.356]]],[[[93.097,8.349],[93.171,8.212],[93.115,8.219],[93.064,8.275],[93.097,8.349]]],[[[93.443,7.878],[93.365,7.877],[93.309,7.964],[93.334,8.007],[93.375,8.018],[93.434,7.948],[93.443,7.878]]],[[[93.537,8.057],[93.478,8.024],[93.456,8.172],[93.494,8.225],[93.532,8.214],[93.512,8.16],[93.537,8.057]]],[[[92.809,9.173],[92.744,9.131],[92.717,9.165],[92.713,9.205],[92.762,9.244],[92.809,9.173]]],[[[92.574,10.704],[92.473,10.521],[92.37,10.547],[92.353,10.751],[92.51,10.897],[92.574,10.704]]],[[[92.693,11.381],[92.645,11.361],[92.596,11.386],[92.634,11.427],[92.64,11.509],[92.69,11.463],[92.693,11.381]]],[[[92.798,11.875],[92.701,11.513],[92.668,11.539],[92.534,11.873],[92.608,11.95],[92.676,12.192],[92.788,12.226],[92.778,12.303],[92.719,12.357],[92.721,12.541],[92.759,12.669],[92.74,12.78],[92.807,12.879],[92.831,13.003],[92.809,13.04],[92.86,13.231],[92.857,13.358],[92.925,13.486],[93.062,13.545],[93.077,13.401],[93.016,13.336],[93.066,13.222],[92.886,12.942],[92.965,12.85],[92.99,12.539],[92.933,12.453],[92.864,12.436],[92.879,12.228],[92.748,11.993],[92.798,11.875]]],[[[93.017,12.037],[93.062,11.899],[92.955,12.002],[93.017,12.037]]],[[[92.718,12.865],[92.686,12.8],[92.68,12.939],[92.711,12.962],[92.718,12.865]]],[[[72.788,11.216],[72.772,11.214],[72.793,11.263],[72.788,11.216]]],[[[73.079,8.317],[73.039,8.252],[73.023,8.266],[73.079,8.317]]]]}},{"type":"Feature","properties":{"unit_id":"LKA","level":"country","name_en":"Sri Lanka","name_bn":"শ্রীলঙ্কা","division":"South Asia","kiln_count":null,"kiln_share":null},"geometry":{"type":"MultiPolygon","coordinates":[[[[79.97,9.631],[79.907,9.62],[79.859,9.734],[79.888,9.741],[79.97,9.631]]],[[[79.86,9.066],[79.904,8.975],[79.748,9.105],[79.86,9.066]]],[[[79.982,9.813],[80.253,9.796],[80.376,9.642],[80.711,9.366],[80.935,8.971],[81.016,8.933],[81.198,8.662],[81.227,8.506],[81.373,8.431],[81.422,8.148],[81.665,7.782],[81.683,7.684],[81.832,7.428],[81.874,7.288],[81.861,6.901],[81.768,6.614],[81.637,6.425],[81.306,6.204],[80.724,5.979],[80.496,5.949],[80.267,6.01],[80.095,6.153],[79.859,6.829],[79.713,8.182],[79.75,8.294],[79.75,8.049],[79.783,8.018],[79.851,8.412],[79.942,8.692],[79.929,8.899],[80.065,9.096],[80.1,9.21],[80.118,9.327],[80.086,9.578],[80.318,9.465],[80.428,9.481],[80.385,9.549],[80.258,9.611],[80.046,9.65],[79.954,9.742],[79.982,9.813]]]]}},{"type":"Feature","properties":{"unit_id":"MDV","level":"country","name_en":"Maldives","name_bn":"মালদ্বীপ","division":"South Asia","kiln_count":null,"kiln_share":null},"geometry":{"type":"MultiPolygon","coordinates":[[[[73.417,3.231],[73.385,3.271],[73.428,3.29],[73.443,3.274],[73.417,3.231]]],[[[73.512,4.165],[73.473,4.171],[73.518,4.248],[73.528,4.243],[73.512,4.165]]]]}},{"type":"Feature","properties":{"unit_id":"NPL","level":"country","name_en":"Nepal","name_bn":"নেপাল","division":"South Asia","kiln_count":null,"kiln_share":null},"geometry":{"type":"Polygon","coordinates":[[[88.11,27.871],[88.15,27.843],[88.147,27.749],[88.024,27.409],[87.984,27.134],[88.157,26.807],[88.162,26.725],[88.055,26.43],[87.995,26.382],[87.849,26.437],[87.633,26.399],[87.414,26.423],[87.287,26.36],[87.09,26.433],[87.016,26.555],[86.701,26.435],[86.366,26.574],[86.007,26.649],[85.795,26.604],[85.737,26.64],[85.7,26.782],[85.648,26.829],[85.568,26.84],[85.293,26.741],[85.192,26.767],[85.125,26.861],[85.02,26.879],[84.685,27.041],[84.61,27.299],[84.091,27.491],[83.897,27.435],[83.829,27.378],[83.447,27.465],[83.29,27.371],[82.733,27.519],[82.677,27.673],[82.451,27.672],[81.988,27.914],[81.853,27.867],[81.311,28.176],[81.169,28.335],[80.587,28.65],[80.518,28.665],[80.479,28.605],[80.419,28.612],[80.071,28.83],[80.052,28.87],[80.13,29.1],[80.233,29.195],[80.255,29.423],[80.317,29.572],[80.402,29.73],[80.613,29.956],[80.908,30.172],[81.01,30.165],[81.11,30.037],[81.177,30.04],[81.255,30.093],[81.417,30.338],[81.642,30.387],[81.855,30.362],[82.043,30.327],[82.159,30.115],[82.221,30.064],[82.487,29.942],[82.854,29.683],[83.014,29.618],[83.155,29.613],[83.583,29.184],[83.936,29.279],[84.101,29.22],[84.229,28.912],[84.797,28.56],[85.069,28.61],[85.159,28.592],[85.089,28.372],[85.122,28.316],[85.678,28.277],[85.84,28.135],[85.954,27.928],[85.995,27.91],[86.064,27.935],[86.079,28.084],[86.137,28.114],[86.218,28.022],[86.409,27.929],[86.517,27.964],[86.554,28.085],[86.614,28.103],[86.691,28.095],[86.75,28.022],[87.02,27.929],[87.141,27.838],[87.623,27.815],[87.861,27.886],[88.11,27.871]]]}},{"type":"Feature","properties":{"unit_id":"PAK","level":"country","name_en":"Pakistan","name_bn":"পাকিস্তান","division":"South Asia","kiln_count":null,"kiln_share":null},"geometry":{"type":"Polygon","coordinates":[[[76.767,35.662],[77.049,35.11],[77.001,34.992],[76.783,34.9],[76.696,34.787],[76.594,34.736],[76.457,34.756],[76.172,34.668],[76.041,34.67],[75.709,34.503],[75.453,34.537],[75.188,34.639],[74.952,34.646],[74.3,34.765],[73.961,34.653],[73.795,34.378],[73.81,34.325],[73.925,34.288],[73.972,34.237],[73.979,34.191],[73.904,34.076],[73.95,34.019],[74.246,33.99],[74.251,33.946],[74.216,33.887],[74.001,33.788],[73.976,33.721],[74.004,33.632],[74.15,33.507],[74.118,33.384],[73.994,33.242],[74.004,33.189],[74.126,33.075],[74.304,32.992],[74.33,32.861],[74.305,32.81],[74.355,32.769],[74.663,32.758],[74.643,32.608],[74.686,32.494],[74.789,32.458],[74.987,32.462],[75.234,32.372],[75.333,32.279],[75.325,32.215],[75.254,32.14],[74.739,31.949],[74.556,31.819],[74.51,31.713],[74.594,31.465],[74.518,31.186],[74.54,31.133],[74.61,31.113],[74.633,31.035],[74.339,30.894],[74.009,30.52],[73.899,30.435],[73.883,30.352],[73.933,30.222],[73.809,30.093],[73.382,29.934],[73.231,29.551],[72.903,29.029],[72.342,28.752],[72.129,28.346],[71.948,28.177],[71.87,27.962],[71.543,27.87],[71.185,27.832],[70.798,27.71],[70.692,27.769],[70.629,27.937],[70.489,28.023],[70.404,28.025],[70.145,27.849],[69.896,27.474],[69.537,27.123],[69.47,26.804],[69.507,26.743],[69.736,26.627],[70.059,26.579],[70.148,26.506],[70.133,26.215],[70.078,26.072],[70.1,25.91],[70.265,25.707],[70.449,25.681],[70.57,25.706],[70.648,25.667],[70.652,25.423],[70.878,25.063],[71.048,24.688],[70.976,24.619],[70.97,24.572],[70.973,24.487],[71.044,24.4],[70.716,24.238],[70.579,24.279],[70.547,24.418],[70.489,24.412],[70.098,24.288],[70.021,24.192],[69.805,24.165],[69.716,24.173],[69.559,24.273],[68.901,24.292],[68.828,24.264],[68.781,24.314],[68.728,24.266],[68.724,23.965],[68.489,23.967],[68.283,23.928],[68.165,23.857],[68.116,23.753],[68.037,23.848],[67.951,23.829],[67.86,23.903],[67.819,23.828],[67.668,23.811],[67.646,23.92],[67.563,23.882],[67.504,23.94],[67.477,24.018],[67.365,24.092],[67.309,24.175],[67.289,24.368],[67.171,24.756],[66.703,24.861],[66.699,25.226],[66.57,25.379],[66.534,25.484],[66.429,25.575],[66.324,25.602],[66.219,25.59],[66.131,25.493],[66.356,25.507],[66.468,25.445],[66.235,25.464],[65.884,25.42],[65.68,25.355],[65.406,25.374],[65.061,25.311],[64.777,25.307],[64.659,25.184],[64.152,25.333],[64.059,25.403],[63.936,25.343],[63.721,25.386],[63.557,25.353],[63.496,25.298],[63.491,25.211],[63.17,25.255],[63.015,25.225],[62.665,25.265],[62.572,25.255],[62.315,25.135],[62.199,25.225],[62.089,25.155],[61.908,25.131],[61.567,25.186],[61.615,25.286],[61.662,25.751],[61.754,25.843],[61.842,26.226],[62.089,26.318],[62.126,26.369],[62.239,26.357],[62.312,26.491],[62.439,26.561],[62.787,26.644],[63.158,26.65],[63.186,26.838],[63.25,26.879],[63.242,27.078],[63.302,27.151],[63.167,27.252],[62.915,27.218],[62.763,27.25],[62.812,27.497],[62.74,28.002],[62.758,28.244],[62.565,28.235],[62.353,28.415],[61.89,28.547],[61.623,28.792],[61.338,29.265],[61.318,29.373],[60.843,29.859],[62.477,29.408],[63.568,29.498],[64.099,29.392],[64.172,29.46],[64.394,29.544],[65.096,29.559],[66.231,29.866],[66.313,29.969],[66.247,30.044],[66.238,30.11],[66.305,30.321],[66.287,30.608],[66.347,30.803],[66.397,30.912],[66.596,31.02],[66.731,31.195],[66.829,31.264],[66.924,31.306],[67.287,31.218],[67.453,31.235],[67.738,31.344],[67.733,31.379],[67.598,31.453],[67.578,31.506],[68.017,31.678],[68.161,31.803],[68.443,31.754],[68.598,31.803],[68.782,31.646],[68.869,31.634],[69.083,31.738],[69.279,31.937],[69.241,32.434],[69.405,32.683],[69.405,32.764],[69.453,32.833],[69.502,33.02],[69.704,33.095],[69.92,33.112],[70.261,33.289],[70.284,33.369],[70.134,33.621],[69.868,33.898],[69.89,34.007],[69.995,34.052],[70.326,33.961],[70.654,33.952],[71.052,34.05],[71.091,34.12],[71.096,34.369],[70.966,34.53],[71.066,34.6],[71.294,34.868],[71.455,34.967],[71.621,35.183],[71.546,35.289],[71.601,35.408],[71.572,35.547],[71.519,35.598],[71.428,35.834],[71.343,35.939],[71.185,36.042],[71.233,36.122],[71.621,36.436],[71.773,36.432],[72.157,36.701],[72.623,36.83],[73.117,36.869],[73.769,36.888],[74.039,36.826],[74.601,37.037],[74.692,37.036],[74.889,36.952],[75.054,36.987],[75.145,36.973],[75.347,36.913],[75.424,36.738],[75.667,36.742],[75.885,36.601],[75.974,36.382],[75.969,36.169],[75.905,36.088],[75.912,36.049],[76.071,35.983],[76.148,35.829],[76.252,35.811],[76.551,35.887],[76.563,35.773],[76.767,35.662]]]}}]}