{"type":"FeatureCollection","features":[{"type":"Feature","properties":{"unit_id":"BD3026","level":"district","name_en":"Dhaka","name_bn":"ঢাকা","division":"Dhaka","kiln_count":25.0,"kiln_share":0.6},"geometry":{"type":"Polygon","coordinates":[[[90.2,23.6],[90.6,23.6],[90.6,24.0],[90.2,24.0],[90.2,23.6]]]}},{"type":"Feature","properties":{"unit_id":"BD5081","level":"district","name_en":"Rajshahi","name_bn":"রাজশাহী","division":"Rajshahi","kiln_count":4.0,"kiln_share":0.2},"geometry":{"type":"Polygon","coordinates":[[[88.3,24.2],[88.8,24.2],[88.8,24.6],[88.3,24.6],[88.3,24.2]]]}},{"type":"Feature","properties":{"unit_id":"BD4047","level":"district","name_en":"Khulna","name_bn":"খুলনা","division":"Khulna","kiln_count":2.0,"kiln_share":0.1},"geometry":{"type":"Polygon","coordinates":[[[89.3,22.4],[89.7,22.4],[89.7,22.9],[89.3,22.9],[89.3,22.4]]]}}]}